ERS-1                   
1 21574U 91050A   26075.02282561  .00000285  00000+0  10587-3 0  9998
2 21574  98.7876  93.4166 0031972 181.5598 178.5495 14.39454329816642
ARIANE 40 R/B           
1 21610U 91050F   26075.12805571  .00000308  00000+0  10452-3 0  9999
2 21610  98.1998 127.1226 0004167  67.2103 292.9528 14.42898614819927
INTERCOSMOS 25          
1 21819U 91086A   26075.09674100  .00001996  00000+0  38413-3 0  9998
2 21819  82.6042 306.1357 1486838 103.1317 273.9435 12.12023732497460
SL-8 R/B                
1 21876U 92008B   26075.05904974  .00000011  00000+0 -46370-5 0  9998
2 21876  82.9222 263.0387 0035772 116.0826 358.8165 13.75969755710290
SL-8 R/B                
1 21938U 92020B   26075.16617667  .00000052  00000+0  38050-4 0  9992
2 21938  82.9326 148.9535 0027564 279.8817 142.0524 13.75550037702021
USA 81                  
1 21949U 92023A   26075.15556860  .00000181  00000+0  59666-4 0  9992
2 21949  85.0072 127.7107 0002289  72.3349 287.8093 14.32370163 95712
COSMOS 2219             
1 22219U 92076A   26075.17037161 -.00000053  00000+0 -30431-5 0  9991
2 22219  71.0641   4.5214 0018600 198.1059 161.9404 14.14093713719297
SL-16 R/B               
1 22220U 92076B   26075.00180008  .00000052  00000+0  49809-4 0  9999
2 22220  71.0006 175.0784 0010555  84.6961  87.8480 14.16859236722726
COSMOS 2221             
1 22236U 92080A   26075.05757807  .00001735  00000+0  15123-3 0  9993
2 22236  82.5003 272.9799 0014592 165.8235 194.3400 14.96227672781745
SL-16 R/B               
1 22285U 92093B   26075.17048820  .00000040  00000+0  44966-4 0  9998
2 22285  71.0240 350.6623 0006288 287.0984  72.9450 14.15447194714078
COSMOS 2228             
1 22286U 92094A   26075.27019778  .00002279  00000+0  19423-3 0  9996
2 22286  82.5161 231.0090 0016592 280.5896  79.3457 14.97226523777042
SL-16 R/B               
1 22566U 93016B   26075.07018273 -.00000191  00000+0 -73621-4 0  9993
2 22566  71.0083 201.7806 0012205 305.8262  54.1726 14.15308859703078
