CCSDS_OMM_VERS = 2.0
CREATION_DATE  = 
ORIGINATOR     = 

OBJECT_NAME    = ERS-1
OBJECT_ID      = 1991-050A
CENTER_NAME    = EARTH
REF_FRAME      = TEME
TIME_SYSTEM    = UTC
MEAN_ELEMENT_THEORY = SGP/SGP4

EPOCH          = 2026-03-16T00:32:52.132704
MEAN_MOTION    = 14.39454329
ECCENTRICITY   = .00319729
INCLINATION    = 98.7876
RA_OF_ASC_NODE = 93.4166
ARG_OF_PERICENTER = 181.5598
MEAN_ANOMALY   = 178.5495

EPHEMERIS_TYPE = 0
CLASSIFICATION_TYPE = U
NORAD_CAT_ID   = 21574
ELEMENT_SET_NO = 999
REV_AT_EPOCH   = 81664
BSTAR          = .10586604E-3
MEAN_MOTION_DOT = .285E-5
MEAN_MOTION_DDOT = 0

CCSDS_OMM_VERS = 2.0
CREATION_DATE  = 
ORIGINATOR     = 

OBJECT_NAME    = ARIANE 40 R/B
OBJECT_ID      = 1991-050F
CENTER_NAME    = EARTH
REF_FRAME      = TEME
TIME_SYSTEM    = UTC
MEAN_ELEMENT_THEORY = SGP/SGP4

EPOCH          = 2026-03-16T03:04:24.013344
MEAN_MOTION    = 14.42898614
ECCENTRICITY   = .00041679
INCLINATION    = 98.1998
RA_OF_ASC_NODE = 127.1226
ARG_OF_PERICENTER = 67.2103
MEAN_ANOMALY   = 292.9528

EPHEMERIS_TYPE = 0
CLASSIFICATION_TYPE = U
NORAD_CAT_ID   = 21610
ELEMENT_SET_NO = 999
REV_AT_EPOCH   = 81992
BSTAR          = .10452422E-3
MEAN_MOTION_DOT = .308E-5
MEAN_MOTION_DDOT = 0

CCSDS_OMM_VERS = 2.0
CREATION_DATE  = 
ORIGINATOR     = 

OBJECT_NAME    = INTERCOSMOS 25
OBJECT_ID      = 1991-086A
CENTER_NAME    = EARTH
REF_FRAME      = TEME
TIME_SYSTEM    = UTC
MEAN_ELEMENT_THEORY = SGP/SGP4

EPOCH          = 2026-03-16T02:19:18.422400
MEAN_MOTION    = 12.12023732
ECCENTRICITY   = .14868384
INCLINATION    = 82.6042
RA_OF_ASC_NODE = 306.1357
ARG_OF_PERICENTER = 103.1317
MEAN_ANOMALY   = 273.9435

EPHEMERIS_TYPE = 0
CLASSIFICATION_TYPE = U
NORAD_CAT_ID   = 21819
ELEMENT_SET_NO = 999
REV_AT_EPOCH   = 49746
BSTAR          = .38412529E-3
MEAN_MOTION_DOT = .1996E-4
MEAN_MOTION_DDOT = 0

CCSDS_OMM_VERS = 2.0
CREATION_DATE  = 
ORIGINATOR     = 

OBJECT_NAME    = SL-8 R/B
OBJECT_ID      = 1992-008B
CENTER_NAME    = EARTH
REF_FRAME      = TEME
TIME_SYSTEM    = UTC
MEAN_ELEMENT_THEORY = SGP/SGP4

EPOCH          = 2026-03-16T01:25:01.897536
MEAN_MOTION    = 13.75969755
ECCENTRICITY   = .00357729
INCLINATION    = 82.9222
RA_OF_ASC_NODE = 263.0387
ARG_OF_PERICENTER = 116.0826
MEAN_ANOMALY   = 358.8165

EPHEMERIS_TYPE = 0
CLASSIFICATION_TYPE = U
NORAD_CAT_ID   = 21876
ELEMENT_SET_NO = 999
REV_AT_EPOCH   = 71029
BSTAR          = -.4637036E-5
MEAN_MOTION_DOT = .11E-6
MEAN_MOTION_DDOT = 0

CCSDS_OMM_VERS = 2.0
CREATION_DATE  = 
ORIGINATOR     = 

OBJECT_NAME    = SL-8 R/B
OBJECT_ID      = 1992-020B
CENTER_NAME    = EARTH
REF_FRAME      = TEME
TIME_SYSTEM    = UTC
MEAN_ELEMENT_THEORY = SGP/SGP4

EPOCH          = 2026-03-16T03:59:17.664288
MEAN_MOTION    = 13.75550037
ECCENTRICITY   = .0027564
INCLINATION    = 82.9326
RA_OF_ASC_NODE = 148.9535
ARG_OF_PERICENTER = 279.8817
MEAN_ANOMALY   = 142.0524

EPHEMERIS_TYPE = 0
CLASSIFICATION_TYPE = U
NORAD_CAT_ID   = 21938
ELEMENT_SET_NO = 999
REV_AT_EPOCH   = 70202
BSTAR          = .38050026E-4
MEAN_MOTION_DOT = .52E-6
MEAN_MOTION_DDOT = 0

CCSDS_OMM_VERS = 2.0
CREATION_DATE  = 
ORIGINATOR     = 

OBJECT_NAME    = USA 81
OBJECT_ID      = 1992-023A
CENTER_NAME    = EARTH
REF_FRAME      = TEME
TIME_SYSTEM    = UTC
MEAN_ELEMENT_THEORY = SGP/SGP4

EPOCH          = 2026-03-16T03:44:01.127040
MEAN_MOTION    = 14.32370163
ECCENTRICITY   = .00022894
INCLINATION    = 85.0072
RA_OF_ASC_NODE = 127.7107
ARG_OF_PERICENTER = 72.3349
MEAN_ANOMALY   = 287.8093

EPHEMERIS_TYPE = 0
CLASSIFICATION_TYPE = U
NORAD_CAT_ID   = 21949
ELEMENT_SET_NO = 999
REV_AT_EPOCH   = 9571
BSTAR          = .59665899E-4
MEAN_MOTION_DOT = .181E-5
MEAN_MOTION_DDOT = 0

CCSDS_OMM_VERS = 2.0
CREATION_DATE  = 
ORIGINATOR     = 

OBJECT_NAME    = COSMOS 2219
OBJECT_ID      = 1992-076A
CENTER_NAME    = EARTH
REF_FRAME      = TEME
TIME_SYSTEM    = UTC
MEAN_ELEMENT_THEORY = SGP/SGP4

EPOCH          = 2026-03-16T04:05:20.107104
MEAN_MOTION    = 14.14093713
ECCENTRICITY   = .00186
INCLINATION    = 71.0641
RA_OF_ASC_NODE = 4.5214
ARG_OF_PERICENTER = 198.1059
MEAN_ANOMALY   = 161.9404

EPHEMERIS_TYPE = 0
CLASSIFICATION_TYPE = U
NORAD_CAT_ID   = 22219
ELEMENT_SET_NO = 999
REV_AT_EPOCH   = 71929
BSTAR          = -.304312E-5
MEAN_MOTION_DOT = -.53E-6
MEAN_MOTION_DDOT = 0

CCSDS_OMM_VERS = 2.0
CREATION_DATE  = 
ORIGINATOR     = 

OBJECT_NAME    = SL-16 R/B
OBJECT_ID      = 1992-076B
CENTER_NAME    = EARTH
REF_FRAME      = TEME
TIME_SYSTEM    = UTC
MEAN_ELEMENT_THEORY = SGP/SGP4

EPOCH          = 2026-03-16T00:02:35.526912
MEAN_MOTION    = 14.16859236
ECCENTRICITY   = .00105551
INCLINATION    = 71.0006
RA_OF_ASC_NODE = 175.0784
ARG_OF_PERICENTER = 84.6961
MEAN_ANOMALY   = 87.8480

EPHEMERIS_TYPE = 0
CLASSIFICATION_TYPE = U
NORAD_CAT_ID   = 22220
ELEMENT_SET_NO = 999
REV_AT_EPOCH   = 72272
BSTAR          = .49808821E-4
MEAN_MOTION_DOT = .52E-6
MEAN_MOTION_DDOT = 0

CCSDS_OMM_VERS = 2.0
CREATION_DATE  = 
ORIGINATOR     = 

OBJECT_NAME    = COSMOS 2221
OBJECT_ID      = 1992-080A
CENTER_NAME    = EARTH
REF_FRAME      = TEME
TIME_SYSTEM    = UTC
MEAN_ELEMENT_THEORY = SGP/SGP4

EPOCH          = 2026-03-16T01:22:54.745248
MEAN_MOTION    = 14.96227672
ECCENTRICITY   = .00145927
INCLINATION    = 82.5003
RA_OF_ASC_NODE = 272.9799
ARG_OF_PERICENTER = 165.8235
MEAN_ANOMALY   = 194.3400

EPHEMERIS_TYPE = 0
CLASSIFICATION_TYPE = U
NORAD_CAT_ID   = 22236
ELEMENT_SET_NO = 999
REV_AT_EPOCH   = 78174
BSTAR          = .15122963E-3
MEAN_MOTION_DOT = .1735E-4
MEAN_MOTION_DDOT = 0

CCSDS_OMM_VERS = 2.0
CREATION_DATE  = 
ORIGINATOR     = 

OBJECT_NAME    = SL-16 R/B
OBJECT_ID      = 1992-093B
CENTER_NAME    = EARTH
REF_FRAME      = TEME
TIME_SYSTEM    = UTC
MEAN_ELEMENT_THEORY = SGP/SGP4

EPOCH          = 2026-03-16T04:05:30.180480
MEAN_MOTION    = 14.15447194
ECCENTRICITY   = .00062886
INCLINATION    = 71.0240
RA_OF_ASC_NODE = 350.6623
ARG_OF_PERICENTER = 287.0984
MEAN_ANOMALY   = 72.9450

EPHEMERIS_TYPE = 0
CLASSIFICATION_TYPE = U
NORAD_CAT_ID   = 22285
ELEMENT_SET_NO = 999
REV_AT_EPOCH   = 71407
BSTAR          = .44965698E-4
MEAN_MOTION_DOT = .4E-6
MEAN_MOTION_DDOT = 0

CCSDS_OMM_VERS = 2.0
CREATION_DATE  = 
ORIGINATOR     = 

OBJECT_NAME    = COSMOS 2228
OBJECT_ID      = 1992-094A
CENTER_NAME    = EARTH
REF_FRAME      = TEME
TIME_SYSTEM    = UTC
MEAN_ELEMENT_THEORY = SGP/SGP4

EPOCH          = 2026-03-16T06:29:05.088192
MEAN_MOTION    = 14.97226523
ECCENTRICITY   = .00165928
INCLINATION    = 82.5161
RA_OF_ASC_NODE = 231.0090
ARG_OF_PERICENTER = 280.5896
MEAN_ANOMALY   = 79.3457

EPHEMERIS_TYPE = 0
CLASSIFICATION_TYPE = U
NORAD_CAT_ID   = 22286
ELEMENT_SET_NO = 999
REV_AT_EPOCH   = 77704
BSTAR          = .19423305E-3
MEAN_MOTION_DOT = .2279E-4
MEAN_MOTION_DDOT = 0

CCSDS_OMM_VERS = 2.0
CREATION_DATE  = 
ORIGINATOR     = 

OBJECT_NAME    = SL-16 R/B
OBJECT_ID      = 1993-016B
CENTER_NAME    = EARTH
REF_FRAME      = TEME
TIME_SYSTEM    = UTC
MEAN_ELEMENT_THEORY = SGP/SGP4

EPOCH          = 2026-03-16T01:41:03.787872
MEAN_MOTION    = 14.15308859
ECCENTRICITY   = .00122057
INCLINATION    = 71.0083
RA_OF_ASC_NODE = 201.7806
ARG_OF_PERICENTER = 305.8262
MEAN_ANOMALY   = 54.1726

EPHEMERIS_TYPE = 0
CLASSIFICATION_TYPE = U
NORAD_CAT_ID   = 22566
ELEMENT_SET_NO = 999
REV_AT_EPOCH   = 70307
BSTAR          = -.73621075E-4
MEAN_MOTION_DOT = -.191E-5
MEAN_MOTION_DDOT = 0

